{
	"Cities": {
		"City": [
			{
				"ID": "1",
				"Name": "北京市",
				"ParentID": "1",
				"ZipCode": "100000",
				"#text": "北京市"
			}, {
				"ID": "2",
				"Name": "天津市",
				"ParentID": "2",
				"ZipCode": "100000",
				"#text": "天津市"
			}, {
				"ID": "3",
				"Name": "石家庄市",
				"ParentID": "3",
				"ZipCode": "050000",
				"#text": "石家庄市"
			}, {
				"ID": "4",
				"Name": "唐山市",
				"ParentID": "3",
				"ZipCode": "063000",
				"#text": "唐山市"
			}, {
				"ID": "5",
				"Name": "秦皇岛市",
				"ParentID": "3",
				"ZipCode": "066000",
				"#text": "秦皇岛市"
			}, {
				"ID": "6",
				"Name": "邯郸市",
				"ParentID": "3",
				"ZipCode": "056000",
				"#text": "邯郸市"
			}, {
				"ID": "7",
				"Name": "邢台市",
				"ParentID": "3",
				"ZipCode": "054000",
				"#text": "邢台市"
			}, {
				"ID": "8",
				"Name": "保定市",
				"ParentID": "3",
				"ZipCode": "071000",
				"#text": "保定市"
			}, {
				"ID": "9",
				"Name": "张家口市",
				"ParentID": "3",
				"ZipCode": "075000",
				"#text": "张家口市"
			}, {
				"ID": "10",
				"Name": "承德市",
				"ParentID": "3",
				"ZipCode": "067000",
				"#text": "承德市"
			}, {
				"ID": "11",
				"Name": "沧州市",
				"ParentID": "3",
				"ZipCode": "061000",
				"#text": "沧州市"
			}, {
				"ID": "12",
				"Name": "廊坊市",
				"ParentID": "3",
				"ZipCode": "065000",
				"#text": "廊坊市"
			}, {
				"ID": "13",
				"Name": "衡水市",
				"ParentID": "3",
				"ZipCode": "053000",
				"#text": "衡水市"
			}, {
				"ID": "14",
				"Name": "太原市",
				"ParentID": "4",
				"ZipCode": "030000",
				"#text": "太原市"
			}, {
				"ID": "15",
				"Name": "大同市",
				"ParentID": "4",
				"ZipCode": "037000",
				"#text": "大同市"
			}, {
				"ID": "16",
				"Name": "阳泉市",
				"ParentID": "4",
				"ZipCode": "045000",
				"#text": "阳泉市"
			}, {
				"ID": "17",
				"Name": "长治市",
				"ParentID": "4",
				"ZipCode": "046000",
				"#text": "长治市"
			}, {
				"ID": "18",
				"Name": "晋城市",
				"ParentID": "4",
				"ZipCode": "048000",
				"#text": "晋城市"
			}, {
				"ID": "19",
				"Name": "朔州市",
				"ParentID": "4",
				"ZipCode": "036000",
				"#text": "朔州市"
			}, {
				"ID": "20",
				"Name": "晋中市",
				"ParentID": "4",
				"ZipCode": "030600",
				"#text": "晋中市"
			}, {
				"ID": "21",
				"Name": "运城市",
				"ParentID": "4",
				"ZipCode": "044000",
				"#text": "运城市"
			}, {
				"ID": "22",
				"Name": "忻州市",
				"ParentID": "4",
				"ZipCode": "034000",
				"#text": "忻州市"
			}, {
				"ID": "23",
				"Name": "临汾市",
				"ParentID": "4",
				"ZipCode": "041000",
				"#text": "临汾市"
			}, {
				"ID": "24",
				"Name": "吕梁市",
				"ParentID": "4",
				"ZipCode": "030500",
				"#text": "吕梁市"
			}, {
				"ID": "25",
				"Name": "呼和浩特市",
				"ParentID": "5",
				"ZipCode": "010000",
				"#text": "呼和浩特市"
			}, {
				"ID": "26",
				"Name": "包头市",
				"ParentID": "5",
				"ZipCode": "014000",
				"#text": "包头市"
			}, {
				"ID": "27",
				"Name": "乌海市",
				"ParentID": "5",
				"ZipCode": "016000",
				"#text": "乌海市"
			}, {
				"ID": "28",
				"Name": "赤峰市",
				"ParentID": "5",
				"ZipCode": "024000",
				"#text": "赤峰市"
			}, {
				"ID": "29",
				"Name": "通辽市",
				"ParentID": "5",
				"ZipCode": "028000",
				"#text": "通辽市"
			}, {
				"ID": "30",
				"Name": "鄂尔多斯市",
				"ParentID": "5",
				"ZipCode": "010300",
				"#text": "鄂尔多斯市"
			}, {
				"ID": "31",
				"Name": "呼伦贝尔市",
				"ParentID": "5",
				"ZipCode": "021000",
				"#text": "呼伦贝尔市"
			}, {
				"ID": "32",
				"Name": "巴彦淖尔市",
				"ParentID": "5",
				"ZipCode": "014400",
				"#text": "巴彦淖尔市"
			}, {
				"ID": "33",
				"Name": "乌兰察布市",
				"ParentID": "5",
				"ZipCode": "011800",
				"#text": "乌兰察布市"
			}, {
				"ID": "34",
				"Name": "兴安盟",
				"ParentID": "5",
				"ZipCode": "137500",
				"#text": "兴安盟"
			}, {
				"ID": "35",
				"Name": "锡林郭勒盟",
				"ParentID": "5",
				"ZipCode": "011100",
				"#text": "锡林郭勒盟"
			}, {
				"ID": "36",
				"Name": "阿拉善盟",
				"ParentID": "5",
				"ZipCode": "016000",
				"#text": "阿拉善盟"
			}, {
				"ID": "37",
				"Name": "沈阳市",
				"ParentID": "6",
				"ZipCode": "110000",
				"#text": "沈阳市"
			}, {
				"ID": "38",
				"Name": "大连市",
				"ParentID": "6",
				"ZipCode": "116000",
				"#text": "大连市"
			}, {
				"ID": "39",
				"Name": "鞍山市",
				"ParentID": "6",
				"ZipCode": "114000",
				"#text": "鞍山市"
			}, {
				"ID": "40",
				"Name": "抚顺市",
				"ParentID": "6",
				"ZipCode": "113000",
				"#text": "抚顺市"
			}, {
				"ID": "41",
				"Name": "本溪市",
				"ParentID": "6",
				"ZipCode": "117000",
				"#text": "本溪市"
			}, {
				"ID": "42",
				"Name": "丹东市",
				"ParentID": "6",
				"ZipCode": "118000",
				"#text": "丹东市"
			}, {
				"ID": "43",
				"Name": "锦州市",
				"ParentID": "6",
				"ZipCode": "121000",
				"#text": "锦州市"
			}, {
				"ID": "44",
				"Name": "营口市",
				"ParentID": "6",
				"ZipCode": "115000",
				"#text": "营口市"
			}, {
				"ID": "45",
				"Name": "阜新市",
				"ParentID": "6",
				"ZipCode": "123000",
				"#text": "阜新市"
			}, {
				"ID": "46",
				"Name": "辽阳市",
				"ParentID": "6",
				"ZipCode": "111000",
				"#text": "辽阳市"
			}, {
				"ID": "47",
				"Name": "盘锦市",
				"ParentID": "6",
				"ZipCode": "124000",
				"#text": "盘锦市"
			}, {
				"ID": "48",
				"Name": "铁岭市",
				"ParentID": "6",
				"ZipCode": "112000",
				"#text": "铁岭市"
			}, {
				"ID": "49",
				"Name": "朝阳市",
				"ParentID": "6",
				"ZipCode": "122000",
				"#text": "朝阳市"
			}, {
				"ID": "50",
				"Name": "葫芦岛市",
				"ParentID": "6",
				"ZipCode": "125000",
				"#text": "葫芦岛市"
			}, {
				"ID": "51",
				"Name": "长春市",
				"ParentID": "7",
				"ZipCode": "130000",
				"#text": "长春市"
			}, {
				"ID": "52",
				"Name": "吉林市",
				"ParentID": "7",
				"ZipCode": "132000",
				"#text": "吉林市"
			}, {
				"ID": "53",
				"Name": "四平市",
				"ParentID": "7",
				"ZipCode": "136000",
				"#text": "四平市"
			}, {
				"ID": "54",
				"Name": "辽源市",
				"ParentID": "7",
				"ZipCode": "136200",
				"#text": "辽源市"
			}, {
				"ID": "55",
				"Name": "通化市",
				"ParentID": "7",
				"ZipCode": "134000",
				"#text": "通化市"
			}, {
				"ID": "56",
				"Name": "白山市",
				"ParentID": "7",
				"ZipCode": "134300",
				"#text": "白山市"
			}, {
				"ID": "57",
				"Name": "松原市",
				"ParentID": "7",
				"ZipCode": "131100",
				"#text": "松原市"
			}, {
				"ID": "58",
				"Name": "白城市",
				"ParentID": "7",
				"ZipCode": "137000",
				"#text": "白城市"
			}, {
				"ID": "59",
				"Name": "延边朝鲜族自治州",
				"ParentID": "7",
				"ZipCode": "133000",
				"#text": "延边朝鲜族自治州"
			}, {
				"ID": "60",
				"Name": "哈尔滨市",
				"ParentID": "8",
				"ZipCode": "150000",
				"#text": "哈尔滨市"
			}, {
				"ID": "61",
				"Name": "齐齐哈尔市",
				"ParentID": "8",
				"ZipCode": "161000",
				"#text": "齐齐哈尔市"
			}, {
				"ID": "62",
				"Name": "鸡西市",
				"ParentID": "8",
				"ZipCode": "158100",
				"#text": "鸡西市"
			}, {
				"ID": "63",
				"Name": "鹤岗市",
				"ParentID": "8",
				"ZipCode": "154100",
				"#text": "鹤岗市"
			}, {
				"ID": "64",
				"Name": "双鸭山市",
				"ParentID": "8",
				"ZipCode": "155100",
				"#text": "双鸭山市"
			}, {
				"ID": "65",
				"Name": "大庆市",
				"ParentID": "8",
				"ZipCode": "163000",
				"#text": "大庆市"
			}, {
				"ID": "66",
				"Name": "伊春市",
				"ParentID": "8",
				"ZipCode": "152300",
				"#text": "伊春市"
			}, {
				"ID": "67",
				"Name": "佳木斯市",
				"ParentID": "8",
				"ZipCode": "154000",
				"#text": "佳木斯市"
			}, {
				"ID": "68",
				"Name": "七台河市",
				"ParentID": "8",
				"ZipCode": "154600",
				"#text": "七台河市"
			}, {
				"ID": "69",
				"Name": "牡丹江市",
				"ParentID": "8",
				"ZipCode": "157000",
				"#text": "牡丹江市"
			}, {
				"ID": "70",
				"Name": "黑河市",
				"ParentID": "8",
				"ZipCode": "164300",
				"#text": "黑河市"
			}, {
				"ID": "71",
				"Name": "绥化市",
				"ParentID": "8",
				"ZipCode": "152000",
				"#text": "绥化市"
			}, {
				"ID": "72",
				"Name": "大兴安岭地区",
				"ParentID": "8",
				"ZipCode": "165000",
				"#text": "大兴安岭地区"
			}, {
				"ID": "73",
				"Name": "上海市",
				"ParentID": "9",
				"ZipCode": "200000",
				"#text": "上海市"
			}, {
				"ID": "74",
				"Name": "南京市",
				"ParentID": "10",
				"ZipCode": "210000",
				"#text": "南京市"
			}, {
				"ID": "75",
				"Name": "无锡市",
				"ParentID": "10",
				"ZipCode": "214000",
				"#text": "无锡市"
			}, {
				"ID": "76",
				"Name": "徐州市",
				"ParentID": "10",
				"ZipCode": "221000",
				"#text": "徐州市"
			}, {
				"ID": "77",
				"Name": "常州市",
				"ParentID": "10",
				"ZipCode": "213000",
				"#text": "常州市"
			}, {
				"ID": "78",
				"Name": "苏州市",
				"ParentID": "10",
				"ZipCode": "215000",
				"#text": "苏州市"
			}, {
				"ID": "79",
				"Name": "南通市",
				"ParentID": "10",
				"ZipCode": "226000",
				"#text": "南通市"
			}, {
				"ID": "80",
				"Name": "连云港市",
				"ParentID": "10",
				"ZipCode": "222000",
				"#text": "连云港市"
			}, {
				"ID": "81",
				"Name": "淮安市",
				"ParentID": "10",
				"ZipCode": "223200",
				"#text": "淮安市"
			}, {
				"ID": "82",
				"Name": "盐城市",
				"ParentID": "10",
				"ZipCode": "224000",
				"#text": "盐城市"
			}, {
				"ID": "83",
				"Name": "扬州市",
				"ParentID": "10",
				"ZipCode": "225000",
				"#text": "扬州市"
			}, {
				"ID": "84",
				"Name": "镇江市",
				"ParentID": "10",
				"ZipCode": "212000",
				"#text": "镇江市"
			}, {
				"ID": "85",
				"Name": "泰州市",
				"ParentID": "10",
				"ZipCode": "225300",
				"#text": "泰州市"
			}, {
				"ID": "86",
				"Name": "宿迁市",
				"ParentID": "10",
				"ZipCode": "223800",
				"#text": "宿迁市"
			}, {
				"ID": "87",
				"Name": "杭州市",
				"ParentID": "11",
				"ZipCode": "310000",
				"#text": "杭州市"
			}, {
				"ID": "88",
				"Name": "宁波市",
				"ParentID": "11",
				"ZipCode": "315000",
				"#text": "宁波市"
			}, {
				"ID": "89",
				"Name": "温州市",
				"ParentID": "11",
				"ZipCode": "325000",
				"#text": "温州市"
			}, {
				"ID": "90",
				"Name": "嘉兴市",
				"ParentID": "11",
				"ZipCode": "314000",
				"#text": "嘉兴市"
			}, {
				"ID": "91",
				"Name": "湖州市",
				"ParentID": "11",
				"ZipCode": "313000",
				"#text": "湖州市"
			}, {
				"ID": "92",
				"Name": "绍兴市",
				"ParentID": "11",
				"ZipCode": "312000",
				"#text": "绍兴市"
			}, {
				"ID": "93",
				"Name": "金华市",
				"ParentID": "11",
				"ZipCode": "321000",
				"#text": "金华市"
			}, {
				"ID": "94",
				"Name": "衢州市",
				"ParentID": "11",
				"ZipCode": "324000",
				"#text": "衢州市"
			}, {
				"ID": "95",
				"Name": "舟山市",
				"ParentID": "11",
				"ZipCode": "316000",
				"#text": "舟山市"
			}, {
				"ID": "96",
				"Name": "台州市",
				"ParentID": "11",
				"ZipCode": "318000",
				"#text": "台州市"
			}, {
				"ID": "97",
				"Name": "丽水市",
				"ParentID": "11",
				"ZipCode": "323000",
				"#text": "丽水市"
			}, {
				"ID": "98",
				"Name": "合肥市",
				"ParentID": "12",
				"ZipCode": "230000",
				"#text": "合肥市"
			}, {
				"ID": "99",
				"Name": "芜湖市",
				"ParentID": "12",
				"ZipCode": "241000",
				"#text": "芜湖市"
			}, {
				"ID": "100",
				"Name": "蚌埠市",
				"ParentID": "12",
				"ZipCode": "233000",
				"#text": "蚌埠市"
			}, {
				"ID": "101",
				"Name": "淮南市",
				"ParentID": "12",
				"ZipCode": "232000",
				"#text": "淮南市"
			}, {
				"ID": "102",
				"Name": "马鞍山市",
				"ParentID": "12",
				"ZipCode": "243000",
				"#text": "马鞍山市"
			}, {
				"ID": "103",
				"Name": "淮北市",
				"ParentID": "12",
				"ZipCode": "235000",
				"#text": "淮北市"
			}, {
				"ID": "104",
				"Name": "铜陵市",
				"ParentID": "12",
				"ZipCode": "244000",
				"#text": "铜陵市"
			}, {
				"ID": "105",
				"Name": "安庆市",
				"ParentID": "12",
				"ZipCode": "246000",
				"#text": "安庆市"
			}, {
				"ID": "106",
				"Name": "黄山市",
				"ParentID": "12",
				"ZipCode": "242700",
				"#text": "黄山市"
			}, {
				"ID": "107",
				"Name": "滁州市",
				"ParentID": "12",
				"ZipCode": "239000",
				"#text": "滁州市"
			}, {
				"ID": "108",
				"Name": "阜阳市",
				"ParentID": "12",
				"ZipCode": "236100",
				"#text": "阜阳市"
			}, {
				"ID": "109",
				"Name": "宿州市",
				"ParentID": "12",
				"ZipCode": "234100",
				"#text": "宿州市"
			}, {
				"ID": "110",
				"Name": "巢湖市",
				"ParentID": "12",
				"ZipCode": "238000",
				"#text": "巢湖市"
			}, {
				"ID": "111",
				"Name": "六安市",
				"ParentID": "12",
				"ZipCode": "237000",
				"#text": "六安市"
			}, {
				"ID": "112",
				"Name": "亳州市",
				"ParentID": "12",
				"ZipCode": "236800",
				"#text": "亳州市"
			}, {
				"ID": "113",
				"Name": "池州市",
				"ParentID": "12",
				"ZipCode": "247100",
				"#text": "池州市"
			}, {
				"ID": "114",
				"Name": "宣城市",
				"ParentID": "12",
				"ZipCode": "366000",
				"#text": "宣城市"
			}, {
				"ID": "115",
				"Name": "福州市",
				"ParentID": "13",
				"ZipCode": "350000",
				"#text": "福州市"
			}, {
				"ID": "116",
				"Name": "厦门市",
				"ParentID": "13",
				"ZipCode": "361000",
				"#text": "厦门市"
			}, {
				"ID": "117",
				"Name": "莆田市",
				"ParentID": "13",
				"ZipCode": "351100",
				"#text": "莆田市"
			}, {
				"ID": "118",
				"Name": "三明市",
				"ParentID": "13",
				"ZipCode": "365000",
				"#text": "三明市"
			}, {
				"ID": "119",
				"Name": "泉州市",
				"ParentID": "13",
				"ZipCode": "362000",
				"#text": "泉州市"
			}, {
				"ID": "120",
				"Name": "漳州市",
				"ParentID": "13",
				"ZipCode": "363000",
				"#text": "漳州市"
			}, {
				"ID": "121",
				"Name": "南平市",
				"ParentID": "13",
				"ZipCode": "353000",
				"#text": "南平市"
			}, {
				"ID": "122",
				"Name": "龙岩市",
				"ParentID": "13",
				"ZipCode": "364000",
				"#text": "龙岩市"
			}, {
				"ID": "123",
				"Name": "宁德市",
				"ParentID": "13",
				"ZipCode": "352100",
				"#text": "宁德市"
			}, {
				"ID": "124",
				"Name": "南昌市",
				"ParentID": "14",
				"ZipCode": "330000",
				"#text": "南昌市"
			}, {
				"ID": "125",
				"Name": "景德镇市",
				"ParentID": "14",
				"ZipCode": "333000",
				"#text": "景德镇市"
			}, {
				"ID": "126",
				"Name": "萍乡市",
				"ParentID": "14",
				"ZipCode": "337000",
				"#text": "萍乡市"
			}, {
				"ID": "127",
				"Name": "九江市",
				"ParentID": "14",
				"ZipCode": "332000",
				"#text": "九江市"
			}, {
				"ID": "128",
				"Name": "新余市",
				"ParentID": "14",
				"ZipCode": "338000",
				"#text": "新余市"
			}, {
				"ID": "129",
				"Name": "鹰潭市",
				"ParentID": "14",
				"ZipCode": "335000",
				"#text": "鹰潭市"
			}, {
				"ID": "130",
				"Name": "赣州市",
				"ParentID": "14",
				"ZipCode": "341000",
				"#text": "赣州市"
			}, {
				"ID": "131",
				"Name": "吉安市",
				"ParentID": "14",
				"ZipCode": "343000",
				"#text": "吉安市"
			}, {
				"ID": "132",
				"Name": "宜春市",
				"ParentID": "14",
				"ZipCode": "336000",
				"#text": "宜春市"
			}, {
				"ID": "133",
				"Name": "抚州市",
				"ParentID": "14",
				"ZipCode": "332900",
				"#text": "抚州市"
			}, {
				"ID": "134",
				"Name": "上饶市",
				"ParentID": "14",
				"ZipCode": "334000",
				"#text": "上饶市"
			}, {
				"ID": "135",
				"Name": "济南市",
				"ParentID": "15",
				"ZipCode": "250000",
				"#text": "济南市"
			}, {
				"ID": "136",
				"Name": "青岛市",
				"ParentID": "15",
				"ZipCode": "266000",
				"#text": "青岛市"
			}, {
				"ID": "137",
				"Name": "淄博市",
				"ParentID": "15",
				"ZipCode": "255000",
				"#text": "淄博市"
			}, {
				"ID": "138",
				"Name": "枣庄市",
				"ParentID": "15",
				"ZipCode": "277100",
				"#text": "枣庄市"
			}, {
				"ID": "139",
				"Name": "东营市",
				"ParentID": "15",
				"ZipCode": "257000",
				"#text": "东营市"
			}, {
				"ID": "140",
				"Name": "烟台市",
				"ParentID": "15",
				"ZipCode": "264000",
				"#text": "烟台市"
			}, {
				"ID": "141",
				"Name": "潍坊市",
				"ParentID": "15",
				"ZipCode": "261000",
				"#text": "潍坊市"
			}, {
				"ID": "142",
				"Name": "济宁市",
				"ParentID": "15",
				"ZipCode": "272100",
				"#text": "济宁市"
			}, {
				"ID": "143",
				"Name": "泰安市",
				"ParentID": "15",
				"ZipCode": "271000",
				"#text": "泰安市"
			}, {
				"ID": "144",
				"Name": "威海市",
				"ParentID": "15",
				"ZipCode": "265700",
				"#text": "威海市"
			}, {
				"ID": "145",
				"Name": "日照市",
				"ParentID": "15",
				"ZipCode": "276800",
				"#text": "日照市"
			}, {
				"ID": "146",
				"Name": "莱芜市",
				"ParentID": "15",
				"ZipCode": "271100",
				"#text": "莱芜市"
			}, {
				"ID": "147",
				"Name": "临沂市",
				"ParentID": "15",
				"ZipCode": "276000",
				"#text": "临沂市"
			}, {
				"ID": "148",
				"Name": "德州市",
				"ParentID": "15",
				"ZipCode": "253000",
				"#text": "德州市"
			}, {
				"ID": "149",
				"Name": "聊城市",
				"ParentID": "15",
				"ZipCode": "252000",
				"#text": "聊城市"
			}, {
				"ID": "150",
				"Name": "滨州市",
				"ParentID": "15",
				"ZipCode": "256600",
				"#text": "滨州市"
			}, {
				"ID": "151",
				"Name": "荷泽市",
				"ParentID": "15",
				"ZipCode": "255000",
				"#text": "荷泽市"
			}, {
				"ID": "152",
				"Name": "郑州市",
				"ParentID": "16",
				"ZipCode": "450000",
				"#text": "郑州市"
			}, {
				"ID": "153",
				"Name": "开封市",
				"ParentID": "16",
				"ZipCode": "475000",
				"#text": "开封市"
			}, {
				"ID": "154",
				"Name": "洛阳市",
				"ParentID": "16",
				"ZipCode": "471000",
				"#text": "洛阳市"
			}, {
				"ID": "155",
				"Name": "平顶山市",
				"ParentID": "16",
				"ZipCode": "467000",
				"#text": "平顶山市"
			}, {
				"ID": "156",
				"Name": "安阳市",
				"ParentID": "16",
				"ZipCode": "454900",
				"#text": "安阳市"
			}, {
				"ID": "157",
				"Name": "鹤壁市",
				"ParentID": "16",
				"ZipCode": "456600",
				"#text": "鹤壁市"
			}, {
				"ID": "158",
				"Name": "新乡市",
				"ParentID": "16",
				"ZipCode": "453000",
				"#text": "新乡市"
			}, {
				"ID": "159",
				"Name": "焦作市",
				"ParentID": "16",
				"ZipCode": "454100",
				"#text": "焦作市"
			}, {
				"ID": "160",
				"Name": "濮阳市",
				"ParentID": "16",
				"ZipCode": "457000",
				"#text": "濮阳市"
			}, {
				"ID": "161",
				"Name": "许昌市",
				"ParentID": "16",
				"ZipCode": "461000",
				"#text": "许昌市"
			}, {
				"ID": "162",
				"Name": "漯河市",
				"ParentID": "16",
				"ZipCode": "462000",
				"#text": "漯河市"
			}, {
				"ID": "163",
				"Name": "三门峡市",
				"ParentID": "16",
				"ZipCode": "472000",
				"#text": "三门峡市"
			}, {
				"ID": "164",
				"Name": "南阳市",
				"ParentID": "16",
				"ZipCode": "473000",
				"#text": "南阳市"
			}, {
				"ID": "165",
				"Name": "商丘市",
				"ParentID": "16",
				"ZipCode": "476000",
				"#text": "商丘市"
			}, {
				"ID": "166",
				"Name": "信阳市",
				"ParentID": "16",
				"ZipCode": "464000",
				"#text": "信阳市"
			}, {
				"ID": "167",
				"Name": "周口市",
				"ParentID": "16",
				"ZipCode": "466000",
				"#text": "周口市"
			}, {
				"ID": "168",
				"Name": "驻马店市",
				"ParentID": "16",
				"ZipCode": "463000",
				"#text": "驻马店市"
			}, {
				"ID": "169",
				"Name": "武汉市",
				"ParentID": "17",
				"ZipCode": "430000",
				"#text": "武汉市"
			}, {
				"ID": "170",
				"Name": "黄石市",
				"ParentID": "17",
				"ZipCode": "435000",
				"#text": "黄石市"
			}, {
				"ID": "171",
				"Name": "十堰市",
				"ParentID": "17",
				"ZipCode": "442000",
				"#text": "十堰市"
			}, {
				"ID": "172",
				"Name": "宜昌市",
				"ParentID": "17",
				"ZipCode": "443000",
				"#text": "宜昌市"
			}, {
				"ID": "173",
				"Name": "襄樊市",
				"ParentID": "17",
				"ZipCode": "441000",
				"#text": "襄樊市"
			}, {
				"ID": "174",
				"Name": "鄂州市",
				"ParentID": "17",
				"ZipCode": "436000",
				"#text": "鄂州市"
			}, {
				"ID": "175",
				"Name": "荆门市",
				"ParentID": "17",
				"ZipCode": "448000",
				"#text": "荆门市"
			}, {
				"ID": "176",
				"Name": "孝感市",
				"ParentID": "17",
				"ZipCode": "432100",
				"#text": "孝感市"
			}, {
				"ID": "177",
				"Name": "荆州市",
				"ParentID": "17",
				"ZipCode": "434000",
				"#text": "荆州市"
			}, {
				"ID": "178",
				"Name": "黄冈市",
				"ParentID": "17",
				"ZipCode": "438000",
				"#text": "黄冈市"
			}, {
				"ID": "179",
				"Name": "咸宁市",
				"ParentID": "17",
				"ZipCode": "437000",
				"#text": "咸宁市"
			}, {
				"ID": "180",
				"Name": "随州市",
				"ParentID": "17",
				"ZipCode": "441300",
				"#text": "随州市"
			}, {
				"ID": "181",
				"Name": "恩施土家族苗族自治州",
				"ParentID": "17",
				"ZipCode": "445000",
				"#text": "恩施土家族苗族自治州"
			}, {
				"ID": "182",
				"Name": "神农架",
				"ParentID": "17",
				"ZipCode": "442400",
				"#text": "神农架"
			}, {
				"ID": "183",
				"Name": "长沙市",
				"ParentID": "18",
				"ZipCode": "410000",
				"#text": "长沙市"
			}, {
				"ID": "184",
				"Name": "株洲市",
				"ParentID": "18",
				"ZipCode": "412000",
				"#text": "株洲市"
			}, {
				"ID": "185",
				"Name": "湘潭市",
				"ParentID": "18",
				"ZipCode": "411100",
				"#text": "湘潭市"
			}, {
				"ID": "186",
				"Name": "衡阳市",
				"ParentID": "18",
				"ZipCode": "421000",
				"#text": "衡阳市"
			}, {
				"ID": "187",
				"Name": "邵阳市",
				"ParentID": "18",
				"ZipCode": "422000",
				"#text": "邵阳市"
			}, {
				"ID": "188",
				"Name": "岳阳市",
				"ParentID": "18",
				"ZipCode": "414000",
				"#text": "岳阳市"
			}, {
				"ID": "189",
				"Name": "常德市",
				"ParentID": "18",
				"ZipCode": "415000",
				"#text": "常德市"
			}, {
				"ID": "190",
				"Name": "张家界市",
				"ParentID": "18",
				"ZipCode": "427000",
				"#text": "张家界市"
			}, {
				"ID": "191",
				"Name": "益阳市",
				"ParentID": "18",
				"ZipCode": "413000",
				"#text": "益阳市"
			}, {
				"ID": "192",
				"Name": "郴州市",
				"ParentID": "18",
				"ZipCode": "423000",
				"#text": "郴州市"
			}, {
				"ID": "193",
				"Name": "永州市",
				"ParentID": "18",
				"ZipCode": "425000",
				"#text": "永州市"
			}, {
				"ID": "194",
				"Name": "怀化市",
				"ParentID": "18",
				"ZipCode": "418000",
				"#text": "怀化市"
			}, {
				"ID": "195",
				"Name": "娄底市",
				"ParentID": "18",
				"ZipCode": "417000",
				"#text": "娄底市"
			}, {
				"ID": "196",
				"Name": "湘西土家族苗族自治州",
				"ParentID": "18",
				"ZipCode": "416000",
				"#text": "湘西土家族苗族自治州"
			}, {
				"ID": "197",
				"Name": "广州市",
				"ParentID": "19",
				"ZipCode": "510000",
				"#text": "广州市"
			}, {
				"ID": "198",
				"Name": "韶关市",
				"ParentID": "19",
				"ZipCode": "521000",
				"#text": "韶关市"
			}, {
				"ID": "199",
				"Name": "深圳市",
				"ParentID": "19",
				"ZipCode": "518000",
				"#text": "深圳市"
			}, {
				"ID": "200",
				"Name": "珠海市",
				"ParentID": "19",
				"ZipCode": "519000",
				"#text": "珠海市"
			}, {
				"ID": "201",
				"Name": "汕头市",
				"ParentID": "19",
				"ZipCode": "515000",
				"#text": "汕头市"
			}, {
				"ID": "202",
				"Name": "佛山市",
				"ParentID": "19",
				"ZipCode": "528000",
				"#text": "佛山市"
			}, {
				"ID": "203",
				"Name": "江门市",
				"ParentID": "19",
				"ZipCode": "529000",
				"#text": "江门市"
			}, {
				"ID": "204",
				"Name": "湛江市",
				"ParentID": "19",
				"ZipCode": "524000",
				"#text": "湛江市"
			}, {
				"ID": "205",
				"Name": "茂名市",
				"ParentID": "19",
				"ZipCode": "525000",
				"#text": "茂名市"
			}, {
				"ID": "206",
				"Name": "肇庆市",
				"ParentID": "19",
				"ZipCode": "526000",
				"#text": "肇庆市"
			}, {
				"ID": "207",
				"Name": "惠州市",
				"ParentID": "19",
				"ZipCode": "516000",
				"#text": "惠州市"
			}, {
				"ID": "208",
				"Name": "梅州市",
				"ParentID": "19",
				"ZipCode": "514000",
				"#text": "梅州市"
			}, {
				"ID": "209",
				"Name": "汕尾市",
				"ParentID": "19",
				"ZipCode": "516600",
				"#text": "汕尾市"
			}, {
				"ID": "210",
				"Name": "河源市",
				"ParentID": "19",
				"ZipCode": "517000",
				"#text": "河源市"
			}, {
				"ID": "211",
				"Name": "阳江市",
				"ParentID": "19",
				"ZipCode": "529500",
				"#text": "阳江市"
			}, {
				"ID": "212",
				"Name": "清远市",
				"ParentID": "19",
				"ZipCode": "511500",
				"#text": "清远市"
			}, {
				"ID": "213",
				"Name": "东莞市",
				"ParentID": "19",
				"ZipCode": "511700",
				"#text": "东莞市"
			}, {
				"ID": "214",
				"Name": "中山市",
				"ParentID": "19",
				"ZipCode": "528400",
				"#text": "中山市"
			}, {
				"ID": "215",
				"Name": "潮州市",
				"ParentID": "19",
				"ZipCode": "515600",
				"#text": "潮州市"
			}, {
				"ID": "216",
				"Name": "揭阳市",
				"ParentID": "19",
				"ZipCode": "522000",
				"#text": "揭阳市"
			}, {
				"ID": "217",
				"Name": "云浮市",
				"ParentID": "19",
				"ZipCode": "527300",
				"#text": "云浮市"
			}, {
				"ID": "218",
				"Name": "南宁市",
				"ParentID": "20",
				"ZipCode": "530000",
				"#text": "南宁市"
			}, {
				"ID": "219",
				"Name": "柳州市",
				"ParentID": "20",
				"ZipCode": "545000",
				"#text": "柳州市"
			}, {
				"ID": "220",
				"Name": "桂林市",
				"ParentID": "20",
				"ZipCode": "541000",
				"#text": "桂林市"
			}, {
				"ID": "221",
				"Name": "梧州市",
				"ParentID": "20",
				"ZipCode": "543000",
				"#text": "梧州市"
			}, {
				"ID": "222",
				"Name": "北海市",
				"ParentID": "20",
				"ZipCode": "536000",
				"#text": "北海市"
			}, {
				"ID": "223",
				"Name": "防城港市",
				"ParentID": "20",
				"ZipCode": "538000",
				"#text": "防城港市"
			}, {
				"ID": "224",
				"Name": "钦州市",
				"ParentID": "20",
				"ZipCode": "535000",
				"#text": "钦州市"
			}, {
				"ID": "225",
				"Name": "贵港市",
				"ParentID": "20",
				"ZipCode": "537100",
				"#text": "贵港市"
			}, {
				"ID": "226",
				"Name": "玉林市",
				"ParentID": "20",
				"ZipCode": "537000",
				"#text": "玉林市"
			}, {
				"ID": "227",
				"Name": "百色市",
				"ParentID": "20",
				"ZipCode": "533000",
				"#text": "百色市"
			}, {
				"ID": "228",
				"Name": "贺州市",
				"ParentID": "20",
				"ZipCode": "542800",
				"#text": "贺州市"
			}, {
				"ID": "229",
				"Name": "河池市",
				"ParentID": "20",
				"ZipCode": "547000",
				"#text": "河池市"
			}, {
				"ID": "230",
				"Name": "来宾市",
				"ParentID": "20",
				"ZipCode": "546100",
				"#text": "来宾市"
			}, {
				"ID": "231",
				"Name": "崇左市",
				"ParentID": "20",
				"ZipCode": "532200",
				"#text": "崇左市"
			}, {
				"ID": "232",
				"Name": "海口市",
				"ParentID": "21",
				"ZipCode": "570000",
				"#text": "海口市"
			}, {
				"ID": "233",
				"Name": "三亚市",
				"ParentID": "21",
				"ZipCode": "572000",
				"#text": "三亚市"
			}, {
				"ID": "234",
				"Name": "重庆市",
				"ParentID": "22",
				"ZipCode": "400000",
				"#text": "重庆市"
			}, {
				"ID": "235",
				"Name": "成都市",
				"ParentID": "23",
				"ZipCode": "610000",
				"#text": "成都市"
			}, {
				"ID": "236",
				"Name": "自贡市",
				"ParentID": "23",
				"ZipCode": "643000",
				"#text": "自贡市"
			}, {
				"ID": "237",
				"Name": "攀枝花市",
				"ParentID": "23",
				"ZipCode": "617000",
				"#text": "攀枝花市"
			}, {
				"ID": "238",
				"Name": "泸州市",
				"ParentID": "23",
				"ZipCode": "646100",
				"#text": "泸州市"
			}, {
				"ID": "239",
				"Name": "德阳市",
				"ParentID": "23",
				"ZipCode": "618000",
				"#text": "德阳市"
			}, {
				"ID": "240",
				"Name": "绵阳市",
				"ParentID": "23",
				"ZipCode": "621000",
				"#text": "绵阳市"
			}, {
				"ID": "241",
				"Name": "广元市",
				"ParentID": "23",
				"ZipCode": "628000",
				"#text": "广元市"
			}, {
				"ID": "242",
				"Name": "遂宁市",
				"ParentID": "23",
				"ZipCode": "629000",
				"#text": "遂宁市"
			}, {
				"ID": "243",
				"Name": "内江市",
				"ParentID": "23",
				"ZipCode": "641000",
				"#text": "内江市"
			}, {
				"ID": "244",
				"Name": "乐山市",
				"ParentID": "23",
				"ZipCode": "614000",
				"#text": "乐山市"
			}, {
				"ID": "245",
				"Name": "南充市",
				"ParentID": "23",
				"ZipCode": "637000",
				"#text": "南充市"
			}, {
				"ID": "246",
				"Name": "眉山市",
				"ParentID": "23",
				"ZipCode": "612100",
				"#text": "眉山市"
			}, {
				"ID": "247",
				"Name": "宜宾市",
				"ParentID": "23",
				"ZipCode": "644000",
				"#text": "宜宾市"
			}, {
				"ID": "248",
				"Name": "广安市",
				"ParentID": "23",
				"ZipCode": "638000",
				"#text": "广安市"
			}, {
				"ID": "249",
				"Name": "达州市",
				"ParentID": "23",
				"ZipCode": "635000",
				"#text": "达州市"
			}, {
				"ID": "250",
				"Name": "雅安市",
				"ParentID": "23",
				"ZipCode": "625000",
				"#text": "雅安市"
			}, {
				"ID": "251",
				"Name": "巴中市",
				"ParentID": "23",
				"ZipCode": "635500",
				"#text": "巴中市"
			}, {
				"ID": "252",
				"Name": "资阳市",
				"ParentID": "23",
				"ZipCode": "641300",
				"#text": "资阳市"
			}, {
				"ID": "253",
				"Name": "阿坝藏族羌族自治州",
				"ParentID": "23",
				"ZipCode": "624600",
				"#text": "阿坝藏族羌族自治州"
			}, {
				"ID": "254",
				"Name": "甘孜藏族自治州",
				"ParentID": "23",
				"ZipCode": "626000",
				"#text": "甘孜藏族自治州"
			}, {
				"ID": "255",
				"Name": "凉山彝族自治州",
				"ParentID": "23",
				"ZipCode": "615000",
				"#text": "凉山彝族自治州"
			}, {
				"ID": "256",
				"Name": "贵阳市",
				"ParentID": "24",
				"ZipCode": "55000",
				"#text": "贵阳市"
			}, {
				"ID": "257",
				"Name": "六盘水市",
				"ParentID": "24",
				"ZipCode": "553000",
				"#text": "六盘水市"
			}, {
				"ID": "258",
				"Name": "遵义市",
				"ParentID": "24",
				"ZipCode": "563000",
				"#text": "遵义市"
			}, {
				"ID": "259",
				"Name": "安顺市",
				"ParentID": "24",
				"ZipCode": "561000",
				"#text": "安顺市"
			}, {
				"ID": "260",
				"Name": "铜仁地区",
				"ParentID": "24",
				"ZipCode": "554300",
				"#text": "铜仁地区"
			}, {
				"ID": "261",
				"Name": "黔西南布依族苗族自治州",
				"ParentID": "24",
				"ZipCode": "551500",
				"#text": "黔西南布依族苗族自治州"
			}, {
				"ID": "262",
				"Name": "毕节地区",
				"ParentID": "24",
				"ZipCode": "551700",
				"#text": "毕节地区"
			}, {
				"ID": "263",
				"Name": "黔东南苗族侗族自治州",
				"ParentID": "24",
				"ZipCode": "551500",
				"#text": "黔东南苗族侗族自治州"
			}, {
				"ID": "264",
				"Name": "黔南布依族苗族自治州",
				"ParentID": "24",
				"ZipCode": "550100",
				"#text": "黔南布依族苗族自治州"
			}, {
				"ID": "265",
				"Name": "昆明市",
				"ParentID": "25",
				"ZipCode": "650000",
				"#text": "昆明市"
			}, {
				"ID": "266",
				"Name": "曲靖市",
				"ParentID": "25",
				"ZipCode": "655000",
				"#text": "曲靖市"
			}, {
				"ID": "267",
				"Name": "玉溪市",
				"ParentID": "25",
				"ZipCode": "653100",
				"#text": "玉溪市"
			}, {
				"ID": "268",
				"Name": "保山市",
				"ParentID": "25",
				"ZipCode": "678000",
				"#text": "保山市"
			}, {
				"ID": "269",
				"Name": "昭通市",
				"ParentID": "25",
				"ZipCode": "657000",
				"#text": "昭通市"
			}, {
				"ID": "270",
				"Name": "丽江市",
				"ParentID": "25",
				"ZipCode": "674100",
				"#text": "丽江市"
			}, {
				"ID": "271",
				"Name": "思茅市",
				"ParentID": "25",
				"ZipCode": "665000",
				"#text": "思茅市"
			}, {
				"ID": "272",
				"Name": "临沧市",
				"ParentID": "25",
				"ZipCode": "677000",
				"#text": "临沧市"
			}, {
				"ID": "273",
				"Name": "楚雄彝族自治州",
				"ParentID": "25",
				"ZipCode": "675000",
				"#text": "楚雄彝族自治州"
			}, {
				"ID": "274",
				"Name": "红河哈尼族彝族自治州",
				"ParentID": "25",
				"ZipCode": "654400",
				"#text": "红河哈尼族彝族自治州"
			}, {
				"ID": "275",
				"Name": "文山壮族苗族自治州",
				"ParentID": "25",
				"ZipCode": "663000",
				"#text": "文山壮族苗族自治州"
			}, {
				"ID": "276",
				"Name": "西双版纳傣族自治州",
				"ParentID": "25",
				"ZipCode": "666200",
				"#text": "西双版纳傣族自治州"
			}, {
				"ID": "277",
				"Name": "大理白族自治州",
				"ParentID": "25",
				"ZipCode": "671000",
				"#text": "大理白族自治州"
			}, {
				"ID": "278",
				"Name": "德宏傣族景颇族自治州",
				"ParentID": "25",
				"ZipCode": "678400",
				"#text": "德宏傣族景颇族自治州"
			}, {
				"ID": "279",
				"Name": "怒江傈僳族自治州",
				"ParentID": "25",
				"ZipCode": "671400",
				"#text": "怒江傈僳族自治州"
			}, {
				"ID": "280",
				"Name": "迪庆藏族自治州",
				"ParentID": "25",
				"ZipCode": "674400",
				"#text": "迪庆藏族自治州"
			}, {
				"ID": "281",
				"Name": "拉萨市",
				"ParentID": "26",
				"ZipCode": "850000",
				"#text": "拉萨市"
			}, {
				"ID": "282",
				"Name": "昌都地区",
				"ParentID": "26",
				"ZipCode": "854000",
				"#text": "昌都地区"
			}, {
				"ID": "283",
				"Name": "山南地区",
				"ParentID": "26",
				"ZipCode": "856000",
				"#text": "山南地区"
			}, {
				"ID": "284",
				"Name": "日喀则地区",
				"ParentID": "26",
				"ZipCode": "857000",
				"#text": "日喀则地区"
			}, {
				"ID": "285",
				"Name": "那曲地区",
				"ParentID": "26",
				"ZipCode": "852000",
				"#text": "那曲地区"
			}, {
				"ID": "286",
				"Name": "阿里地区",
				"ParentID": "26",
				"ZipCode": "859100",
				"#text": "阿里地区"
			}, {
				"ID": "287",
				"Name": "林芝地区",
				"ParentID": "26",
				"ZipCode": "860100",
				"#text": "林芝地区"
			}, {
				"ID": "288",
				"Name": "西安市",
				"ParentID": "27",
				"ZipCode": "710000",
				"#text": "西安市"
			}, {
				"ID": "289",
				"Name": "铜川市",
				"ParentID": "27",
				"ZipCode": "727000",
				"#text": "铜川市"
			}, {
				"ID": "290",
				"Name": "宝鸡市",
				"ParentID": "27",
				"ZipCode": "721000",
				"#text": "宝鸡市"
			}, {
				"ID": "291",
				"Name": "咸阳市",
				"ParentID": "27",
				"ZipCode": "712000",
				"#text": "咸阳市"
			}, {
				"ID": "292",
				"Name": "渭南市",
				"ParentID": "27",
				"ZipCode": "714000",
				"#text": "渭南市"
			}, {
				"ID": "293",
				"Name": "延安市",
				"ParentID": "27",
				"ZipCode": "716000",
				"#text": "延安市"
			}, {
				"ID": "294",
				"Name": "汉中市",
				"ParentID": "27",
				"ZipCode": "723000",
				"#text": "汉中市"
			}, {
				"ID": "295",
				"Name": "榆林市",
				"ParentID": "27",
				"ZipCode": "719000",
				"#text": "榆林市"
			}, {
				"ID": "296",
				"Name": "安康市",
				"ParentID": "27",
				"ZipCode": "725000",
				"#text": "安康市"
			}, {
				"ID": "297",
				"Name": "商洛市",
				"ParentID": "27",
				"ZipCode": "711500",
				"#text": "商洛市"
			}, {
				"ID": "298",
				"Name": "兰州市",
				"ParentID": "28",
				"ZipCode": "730000",
				"#text": "兰州市"
			}, {
				"ID": "299",
				"Name": "嘉峪关市",
				"ParentID": "28",
				"ZipCode": "735100",
				"#text": "嘉峪关市"
			}, {
				"ID": "300",
				"Name": "金昌市",
				"ParentID": "28",
				"ZipCode": "737100",
				"#text": "金昌市"
			}, {
				"ID": "301",
				"Name": "白银市",
				"ParentID": "28",
				"ZipCode": "730900",
				"#text": "白银市"
			}, {
				"ID": "302",
				"Name": "天水市",
				"ParentID": "28",
				"ZipCode": "741000",
				"#text": "天水市"
			}, {
				"ID": "303",
				"Name": "武威市",
				"ParentID": "28",
				"ZipCode": "733000",
				"#text": "武威市"
			}, {
				"ID": "304",
				"Name": "张掖市",
				"ParentID": "28",
				"ZipCode": "734000",
				"#text": "张掖市"
			}, {
				"ID": "305",
				"Name": "平凉市",
				"ParentID": "28",
				"ZipCode": "744000",
				"#text": "平凉市"
			}, {
				"ID": "306",
				"Name": "酒泉市",
				"ParentID": "28",
				"ZipCode": "735000",
				"#text": "酒泉市"
			}, {
				"ID": "307",
				"Name": "庆阳市",
				"ParentID": "28",
				"ZipCode": "744500",
				"#text": "庆阳市"
			}, {
				"ID": "308",
				"Name": "定西市",
				"ParentID": "28",
				"ZipCode": "743000",
				"#text": "定西市"
			}, {
				"ID": "309",
				"Name": "陇南市",
				"ParentID": "28",
				"ZipCode": "742100",
				"#text": "陇南市"
			}, {
				"ID": "310",
				"Name": "临夏回族自治州",
				"ParentID": "28",
				"ZipCode": "731100",
				"#text": "临夏回族自治州"
			}, {
				"ID": "311",
				"Name": "甘南藏族自治州",
				"ParentID": "28",
				"ZipCode": "747000",
				"#text": "甘南藏族自治州"
			}, {
				"ID": "312",
				"Name": "西宁市",
				"ParentID": "29",
				"ZipCode": "810000",
				"#text": "西宁市"
			}, {
				"ID": "313",
				"Name": "海东地区",
				"ParentID": "29",
				"ZipCode": "810600",
				"#text": "海东地区"
			}, {
				"ID": "314",
				"Name": "海北藏族自治州",
				"ParentID": "29",
				"ZipCode": "810300",
				"#text": "海北藏族自治州"
			}, {
				"ID": "315",
				"Name": "黄南藏族自治州",
				"ParentID": "29",
				"ZipCode": "811300",
				"#text": "黄南藏族自治州"
			}, {
				"ID": "316",
				"Name": "海南藏族自治州",
				"ParentID": "29",
				"ZipCode": "813000",
				"#text": "海南藏族自治州"
			}, {
				"ID": "317",
				"Name": "果洛藏族自治州",
				"ParentID": "29",
				"ZipCode": "814000",
				"#text": "果洛藏族自治州"
			}, {
				"ID": "318",
				"Name": "玉树藏族自治州",
				"ParentID": "29",
				"ZipCode": "815000",
				"#text": "玉树藏族自治州"
			}, {
				"ID": "319",
				"Name": "海西蒙古族藏族自治州",
				"ParentID": "29",
				"ZipCode": "817000",
				"#text": "海西蒙古族藏族自治州"
			}, {
				"ID": "320",
				"Name": "银川市",
				"ParentID": "30",
				"ZipCode": "750000",
				"#text": "银川市"
			}, {
				"ID": "321",
				"Name": "石嘴山市",
				"ParentID": "30",
				"ZipCode": "753000",
				"#text": "石嘴山市"
			}, {
				"ID": "322",
				"Name": "吴忠市",
				"ParentID": "30",
				"ZipCode": "751100",
				"#text": "吴忠市"
			}, {
				"ID": "323",
				"Name": "固原市",
				"ParentID": "30",
				"ZipCode": "756000",
				"#text": "固原市"
			}, {
				"ID": "324",
				"Name": "中卫市",
				"ParentID": "30",
				"ZipCode": "751700",
				"#text": "中卫市"
			}, {
				"ID": "325",
				"Name": "乌鲁木齐市",
				"ParentID": "31",
				"ZipCode": "830000",
				"#text": "乌鲁木齐市"
			}, {
				"ID": "326",
				"Name": "克拉玛依市",
				"ParentID": "31",
				"ZipCode": "834000",
				"#text": "克拉玛依市"
			}, {
				"ID": "327",
				"Name": "吐鲁番地区",
				"ParentID": "31",
				"ZipCode": "838000",
				"#text": "吐鲁番地区"
			}, {
				"ID": "328",
				"Name": "哈密地区",
				"ParentID": "31",
				"ZipCode": "839000",
				"#text": "哈密地区"
			}, {
				"ID": "329",
				"Name": "昌吉回族自治州",
				"ParentID": "31",
				"ZipCode": "831100",
				"#text": "昌吉回族自治州"
			}, {
				"ID": "330",
				"Name": "博尔塔拉蒙古自治州",
				"ParentID": "31",
				"ZipCode": "833400",
				"#text": "博尔塔拉蒙古自治州"
			}, {
				"ID": "331",
				"Name": "巴音郭楞蒙古自治州",
				"ParentID": "31",
				"ZipCode": "841000",
				"#text": "巴音郭楞蒙古自治州"
			}, {
				"ID": "332",
				"Name": "阿克苏地区",
				"ParentID": "31",
				"ZipCode": "843000",
				"#text": "阿克苏地区"
			}, {
				"ID": "333",
				"Name": "克孜勒苏柯尔克孜自治州",
				"ParentID": "31",
				"ZipCode": "835600",
				"#text": "克孜勒苏柯尔克孜自治州"
			}, {
				"ID": "334",
				"Name": "喀什地区",
				"ParentID": "31",
				"ZipCode": "844000",
				"#text": "喀什地区"
			}, {
				"ID": "335",
				"Name": "和田地区",
				"ParentID": "31",
				"ZipCode": "848000",
				"#text": "和田地区"
			}, {
				"ID": "336",
				"Name": "伊犁哈萨克自治州",
				"ParentID": "31",
				"ZipCode": "833200",
				"#text": "伊犁哈萨克自治州"
			}, {
				"ID": "337",
				"Name": "塔城地区",
				"ParentID": "31",
				"ZipCode": "834700",
				"#text": "塔城地区"
			}, {
				"ID": "338",
				"Name": "阿勒泰地区",
				"ParentID": "31",
				"ZipCode": "836500",
				"#text": "阿勒泰地区"
			}, {
				"ID": "339",
				"Name": "石河子市",
				"ParentID": "31",
				"ZipCode": "832000",
				"#text": "石河子市"
			}, {
				"ID": "340",
				"Name": "阿拉尔市",
				"ParentID": "31",
				"ZipCode": "843300",
				"#text": "阿拉尔市"
			}, {
				"ID": "341",
				"Name": "图木舒克市",
				"ParentID": "31",
				"ZipCode": "843900",
				"#text": "图木舒克市"
			}, {
				"ID": "342",
				"Name": "五家渠市",
				"ParentID": "31",
				"ZipCode": "831300",
				"#text": "五家渠市"
			}, {
				"ID": "343",
				"Name": "香港特别行政区",
				"ParentID": "32",
				"ZipCode": "000000",
				"#text": "香港特别行政区"
			}, {
				"ID": "344",
				"Name": "澳门特别行政区",
				"ParentID": "33",
				"ZipCode": "000000",
				"#text": "澳门特别行政区"
			}, {
				"ID": "345",
				"Name": "台湾省",
				"ParentID": "34",
				"ZipCode": "000000",
				"#text": "台湾省"
			}
		]
	}
}
